GLOBALSTAR M067         
1 32263U 07048A   24229.22795340 -.00000042  00000+0  41243-3 0  9999
2 32263  51.9702 208.2547 0001039  48.8677 324.4870 12.40652539771632
GLOBALSTAR M070         
1 32264U 07048B   24229.78563071 -.00000059  00000+0  24999-3 0  9992
2 32264  51.9775 335.8221 0000945 122.5377  44.4067 12.62297551775220
GLOBALSTAR M066         
1 32265U 07048C   24229.28055615 -.00000074  00000+0  16831-3 0  9991
2 32265  51.9654 199.9617 0001314 261.8553 238.2612 12.58439780777418
GLOBALSTAR M068         
1 32266U 07048D   24229.82023581 -.00000083  00000+0  11400-3 0  9996
2 32266  51.9879 150.0502 0000599 153.1728 268.6393 12.62796670779100
GLOBALSTAR M079         
1 37188U 10054A   24229.81739344 -.00000076  00000+0  15590-3 0  9991
2 37188  52.0065 346.3379 0000634  84.0102  85.2823 12.62262658638016
GLOBALSTAR M074         
1 37189U 10054B   24229.83820230 -.00000085  00000+0  10359-3 0  9997
2 37189  52.0044 345.6438 0000737 105.0916  38.9613 12.62271258638628
GLOBALSTAR M076         
1 37190U 10054C   24229.86622990 -.00000087  00000+0  91521-4 0  9998
2 37190  52.0056 345.7044 0000986  82.5689  67.3932 12.62255233638343
GLOBALSTAR M077         
1 37191U 10054D   24229.44815038 -.00000065  00000+0  21642-3 0  9992
2 37191  52.0081 303.7460 0000569 118.6840 351.5154 12.62262496638663
